[{"OBJECT_NAME":"STARLINK-5735","OBJECT_ID":"2023-020AL","EPOCH":"2026-03-09T22:00:01.999584","MEAN_MOTION":15.06279233,"ECCENTRICITY":5.97e-5,"INCLINATION":43.0003,"RA_OF_ASC_NODE":350.7132,"ARG_OF_PERICENTER":265.6856,"MEAN_ANOMALY":330.5887,"EPHEMERIS_TYPE":0,"CLASSIFICATION_TYPE":"U","NORAD_CAT_ID":55603,"ELEMENT_SET_NO":999,"REV_AT_EPOCH":572,"BSTAR":0.0010089765,"MEAN_MOTION_DOT":0.00014888,"MEAN_MOTION_DDOT":0},{"OBJECT_NAME":"PSLV DEB","OBJECT_ID":"2001-049CG","EPOCH":"2026-03-09T17:57:10.653408","MEAN_MOTION":15.10779615,"ECCENTRICITY":0.00259315,"INCLINATION":97.9011,"RA_OF_ASC_NODE":146.9612,"ARG_OF_PERICENTER":307.1678,"MEAN_ANOMALY":170.9563,"EPHEMERIS_TYPE":0,"CLASSIFICATION_TYPE":"U","NORAD_CAT_ID":27136,"ELEMENT_SET_NO":999,"REV_AT_EPOCH":32989,"BSTAR":0.00047952924,"MEAN_MOTION_DOT":7.956e-5,"MEAN_MOTION_DDOT":0}]
